[{"OBJECT_NAME":"STARLINK-6191","OBJECT_ID":"2023-061E","EPOCH":"2026-03-09T22:00:01.999584","MEAN_MOTION":15.17749131,"ECCENTRICITY":0.00020752,"INCLINATION":42.9995,"RA_OF_ASC_NODE":195.7809,"ARG_OF_PERICENTER":287.3386,"MEAN_ANOMALY":87.7798,"EPHEMERIS_TYPE":0,"CLASSIFICATION_TYPE":"U","NORAD_CAT_ID":56378,"ELEMENT_SET_NO":999,"REV_AT_EPOCH":567,"BSTAR":0.055577175,"MEAN_MOTION_DOT":0.01251743,"MEAN_MOTION_DDOT":0},{"OBJECT_NAME":"HYPERFIELD-1B","OBJECT_ID":"2025-135AA","EPOCH":"2026-03-09T21:55:06.230784","MEAN_MOTION":15.21415423,"ECCENTRICITY":5.345e-5,"INCLINATION":97.4541,"RA_OF_ASC_NODE":185.0442,"ARG_OF_PERICENTER":81.1107,"MEAN_ANOMALY":279.0189,"EPHEMERIS_TYPE":0,"CLASSIFICATION_TYPE":"U","NORAD_CAT_ID":64552,"ELEMENT_SET_NO":999,"REV_AT_EPOCH":3978,"BSTAR":0.00030259175,"MEAN_MOTION_DOT":6.723e-5,"MEAN_MOTION_DDOT":0}]
